CARTOSAT-2A             
1 32783U 08021A   26193.81841295  .00000125  00000+0  23519-4 0  9994
2 32783  97.7627 241.6504 0012688  34.3719 325.8311 14.79273393982591
CARTOSAT-2B             
1 36795U 10035A   26193.85159345  .00000526  00000+0  78945-4 0  9999
2 36795  97.9947 244.2350 0012573 105.9355 254.3242 14.78616337863648
CARBONITE 1 (CBNT-1)    
1 40718U 15032D   26193.81120719  .00000947  00000+0  12065-3 0  9997
2 40718  97.6518  10.8077 0013620 205.1882 154.8670 14.83664590593148
CARTOSAT-2C             
1 41599U 16040A   26193.81355022  .00001064  00000+0  53695-4 0  9998
2 41599  97.4482 253.4365 0009783  52.9040 307.3087 15.19250907557609
CARTOSAT-2D             
1 41948U 17008A   26193.84534038  .00001621  00000+0  80065-4 0  9990
2 41948  97.4099 252.6699 0005799 145.4996 214.6616 15.19270547521479
CARTOSAT-2E             
1 42767U 17036C   26193.86306226  .00000405  00000+0  22400-4 0  9997
2 42767  97.4269 253.2401 0003011 195.6086 164.5056 15.19239013502044
CARTOSAT-2F             
1 43111U 18004A   26193.89563766  .00001304  00000+0  65102-4 0  9999
2 43111  97.4784 253.2769 0002542 140.9577 219.1842 15.19257456471230
CARTOSAT-3              
1 44804U 19081A   26193.84396204  .00001912  00000+0  93630-4 0  9993
2 44804  97.4299 255.2961 0013222  68.5429 291.7214 15.19311961367364
CARBSAR                 
1 67397U 26004AL  26193.72329557  .00003596  00000+0  17069-3 0  9993
2 67397  97.4542 192.5830 0003928 233.3716 126.7158 15.19886583 27643
CAPELLA-20 (ACADIA-10)  
1 68485U 26067BX  26193.78364953  .00003566  00000+0  36022-3 0  9993
2 68485  97.7586 151.6711 0000844 145.2453 214.8821 14.91670391 15549
